OBJECT B                
1 51825U 22019B   25282.86681455  .00028992  00000+0  58329-3 0  9996
2 51825  97.3752   1.1043 0007817 330.2579  29.8225 15.46539804200754
